HELIOS 1B               
1 25977U 99064A   21106.47116368  .00000043  00000-0  12479-4 0  9998
2 25977  98.3122 278.5612 0002554  90.4339 269.7165 14.82546755420012
TERRA                   
1 25994U 99068A   21106.50467201  .00000064  00000-0  24180-4 0  9995
2 25994  98.1788 182.0532 0001280 100.1630  15.2231 14.57123417134327
SL-16 R/B               
1 26070U 00006B   21106.54931032 -.00000269  00000-0 -11303-3 0  9998
2 26070  71.0015 256.3272 0015782  15.3743 344.7856 14.15471964 95524
MTI                     
1 26102U 00014A   21106.61694831  .00008703  00000-0  10949-3 0  9998
2 26102  97.4711   9.9576 0006140 169.7235 190.4180 15.59902022171706
TITAN 4B R/B            
1 26474U 00047B   21106.31573115  .00000112  00000-0  20599-4 0  9993
2 26474  67.9938 321.9473 0059683 227.8352 131.7713 14.96122483124624
ENVISAT                 
1 27386U 02009A   21106.59969639  .00000026  00000-0  22099-4 0  9997
2 27386  98.1481 103.8201 0001378  87.4964  21.7343 14.38021068  2118
IDEFIX & ARIANE 42P R/B 
1 27422U 02021B   21106.57499641  .00000020  00000-0  24297-4 0  9997
2 27422  98.3967  61.7892 0013323  58.4855 301.7627 14.29314897988460
AQUA                    
1 27424U 02022A   21106.60478459  .00000111  00000-0  34770-4 0  9996
2 27424  98.2051  48.8314 0002321  99.1234  73.8009 14.57112776  8028
CZ-4B R/B               
1 27432U 02024C   21106.60556944 -.00000037  00000-0  45692-5 0  9997
2 27432  99.0890 119.9678 0051106  42.1604  64.6167 14.14106651976490
MIDORI II (ADEOS-II)    
1 27597U 02056A   21106.55321723  .00000036  00000-0  32283-4 0  9992
2 27597  98.5593  53.1225 0001403 125.9160 234.2152 14.27493143955052
H-2A R/B                
1 27601U 02056E   21106.07992705 -.00000054  00000-0 -51732-5 0  9992
2 27601  98.1955 131.7592 0073439  95.8722 325.9608 14.31990673958000
CZ-4B R/B               
1 28059U 03049C   21106.33213316  .00000028  00000-0  18726-4 0  9990
2 28059  98.4933  32.3423 0048996 293.3625  66.2420 14.52645075926809
CZ-2C R/B               
1 28222U 04012C   21106.51635743  .00000569  00000-0  37466-4 0  9997
2 28222  97.7219  76.7261 0048272  73.7764  41.6889 15.10798506931741
SL-16 R/B               
1 28353U 04021B   21106.49977373 -.00000007  00000-0  21174-4 0  9994
2 28353  71.0045  23.7461 0007161 246.5535 113.4834 14.14247911869986
CZ-4B R/B               
1 28415U 04035C   21106.35549432  .00000041  00000-0  68853-5 0  9997
2 28415  97.5722 149.9114 0052345  40.6902 319.8218 15.07077089909254
CZ-2C R/B               
1 28480U 04046B   21106.30223161  .00000014  00000-0  19918-4 0  9991
2 28480  98.0541 123.3077 0142857  48.3890 323.0055 14.25749345853573
ARIANE 5 R/B            
1 28499U 04049H   21106.57536734  .00000052  00000-0  13783-4 0  9992
2 28499  98.0631 215.5202 0092325  14.5305 355.9570 14.80109615880934
CZ-2D R/B               
1 28738U 05024B   21106.31657989  .00000505  00000-0  32698-4 0  9999
2 28738  97.3652 124.5411 0010906 209.7836 150.2776 15.12346422867178
SUZAKU (ASTRO-EII)      
1 28773U 05025A   21106.31157925  .00001486  00000-0  66463-4 0  9990
2 28773  31.3808 206.4736 0004541  16.4656 343.6139 15.18269858870010
ALOS (DAICHI)           
1 28931U 06002A   21106.17528705  .00000110  00000-0  30237-4 0  9997
2 28931  97.8812  83.6616 0000723 103.4680 256.6590 14.62822941811950
H-2A R/B                
1 28932U 06002B   21106.30105656  .00000520  00000-0  53251-4 0  9995
2 28932  98.3314 119.6755 0089387  51.4784 319.7875 14.92505998826314
AKARI (ASTRO-F)         
1 28939U 06005A   21106.19825262  .00004879  00000-0  12299-3 0  9991
2 28939  98.2479 122.0032 0087697 344.7074  15.1519 15.36562199827341
RESURS-DK 1             
1 29228U 06021A   21106.50890017  .00000073  00000-0  12821-4 0  9990
2 29228  69.9341 136.4357 0005743 323.2442  36.8324 15.02672375818242
GENESIS 1               
1 29252U 06029A   21106.52331098  .00000865  00000-0  51051-4 0  9993
2 29252  64.5229  30.0223 0037462 331.6141  28.2941 15.18582966814113
CZ-4B R/B               
1 29507U 06046C   21106.55319286  .00001053  00000-0  86092-4 0  9996
2 29507  97.7276 132.7664 0046548 223.8812 135.8711 15.00769604790825
CZ-2C R/B               
1 31114U 07010B   21106.43626955 -.00000019  00000-0  94379-5 0  9996
2 31114  98.2363 304.4989 0060915 103.4497 257.3479 14.19356021725989
COSMO-SKYMED 1          
1 31598U 07023A   21106.19501618 -.00000254  00000-0 -25304-4 0  9990
2 31598  97.8892 290.9696 0001596  91.9050 268.2340 14.82154231749676
GENESIS 2               
1 31789U 07028A   21106.32035920  .00000355  00000-0  27612-4 0  9994
2 31789  64.5054  72.9518 0016368 205.5904 154.4411 15.17713635761109
COSMOS 2428             
1 31792U 07029A   21106.43073359  .00000167  00000-0  11683-3 0  9990
2 31792  70.8956 356.3250 0008585 309.6116  50.4246 14.12248987711551
SL-16 R/B               
1 31793U 07029B   21106.40526845  .00000304  00000-0  18344-3 0  9995
2 31793  70.9762 329.9669 0002056 253.4046 279.4448 14.14443632712490
KORONAS-FOTON           
1 33504U 09003A   21106.04665520  .00000449  00000-0  21666-4 0  9997
2 33504  82.4387 281.6685 0017805 315.3783  44.6015 15.15934014673218
H-2A R/B                
1 38341U 12025E   21106.37034105  .00000078  00000-0  16822-4 0  9990
2 38341  98.5266 287.6107 0054909 340.1715  19.7362 14.84203077482295
CUSAT 2 & FALCON 9 R/B  
1 39271U 13055G   21106.29362762  .00005658  00000-0  13314-3 0  9992
2 39271  80.9624 300.3747 0572550 337.1596  20.5011 14.51874794394617
SL-4 R/B                
1 39679U 14021B   21106.51555784  .00000371  00000-0  35661-4 0  9998
2 39679  51.6159 140.5702 0169939 276.3321  81.8319 15.06879771384717
ALOS-2                  
1 39766U 14029A   21106.23578824 -.00000480  00000-0 -57442-4 0  9996
2 39766  97.9191 204.4904 0001624  94.2812 265.8605 14.79467838372462
CZ-2C R/B               
1 40306U 14071B   21106.39266986  .00004945  00000-0  96964-4 0  9995
2 40306  97.3656  62.7729 0015717 135.2229 225.0293 15.47715125360650
SL-27 R/B               
1 40354U 14084B   21106.35179642  .00000925  00000-0  23245-4 0  9996
2 40354  74.7355 121.1481 0036103 159.5848 200.6817 15.40956301354774
YAOGAN 29               
1 41038U 15069A   21106.29662861  .00000039  00000-0  12080-4 0  9994
2 41038  98.0363 100.2071 0001713  51.6305 308.5071 14.80497192291089
ASTRO-H (HITOMI)        
1 41337U 16012A   21106.49769797  .00000323  00000-0  19189-4 0  9996
2 41337  31.0048 248.1565 0012297 186.7626 173.2845 14.98818292283009
HXMT (HUIYAN)           
1 42758U 17034A   21106.23534734  .00000304  00000-0  32405-4 0  9997
2 42758  43.0174 174.6272 0008003 134.0443 326.8107 15.09137331211617
CZ-2C R/B               
1 43521U 18054D   21106.45659111  .00000681  00000-0  38396-4 0  9993
2 43521  35.1531 112.0873 0082719 270.9886  88.1351 15.11411660155018
AEOLUS                  
1 43600U 18066A   21106.56509206  .00040944  00000-0  16142-3 0  9995
2 43600  96.7196 114.3576 0007456  97.8839 262.3280 15.86714890153434
SAOCOM 1A               
1 43641U 18076A   21106.27094530 -.00000263  00000-0 -26447-4 0  9990
2 43641  97.8900 294.0838 0001390  74.8979 285.2352 14.82154338136459
CREW DRAGON DEMO-1 DEB  
1 44064U 19011B   21106.55725086  .00076705  00000-0  33565-3 0  9998
2 44064  51.6238 201.6926 0002361   5.6801 354.4229 15.83976133120573
SAOCOM 1B               
1 46265U 20059A   21106.30215981  .00000511  00000-0  70794-4 0  9996
2 46265  97.8882 293.1800 0001553  82.9762 277.1526 14.82155277 33859
CZ-2F R/B               
1 46390U 20063B   21106.26376403  .00082813  13839-4  20965-3 0  9999
2 46390  50.1989 302.0452 0009916 217.7105 142.3189 15.95426025 35511
2020-063G               
1 46395U 20063G   21104.64309438  .00021386  00000-0  93998-4 0  9995
2 46395  50.2039 318.1854 0009544 189.1968 170.8842 15.84435289 35155
